{
    "links": {
        "self": "http://www.neowsapp.com/rest/v1/neo/3836856?api_key=iIulBulltgU6a56xZRHN4H3l9WmuAYTsLGpBGhQ2"
    },
    "id": "3836856",
    "neo_reference_id": "3836856",
    "name": "(2018 XS2)",
    "designation": "2018 XS2",
    "nasa_jpl_url": "http://ssd.jpl.nasa.gov/sbdb.cgi?sstr=3836856",
    "absolute_magnitude_h": 26.1,
    "estimated_diameter": {
        "kilometers": {
            "estimated_diameter_min": 0.0160160338,
            "estimated_diameter_max": 0.0358129403
        },
        "meters": {
            "estimated_diameter_min": 16.0160337979,
            "estimated_diameter_max": 35.8129403019
        },
        "miles": {
            "estimated_diameter_min": 0.0099518989,
            "estimated_diameter_max": 0.0222531225
        },
        "feet": {
            "estimated_diameter_min": 52.5460443254,
            "estimated_diameter_max": 117.4965270602
        }
    },
    "is_potentially_hazardous_asteroid": false,
    "close_approach_data": [
        {
            "close_approach_date": "2018-12-02",
            "close_approach_date_full": "2018-Dec-02 08:16",
            "epoch_date_close_approach": 1543738560000,
            "relative_velocity": {
                "kilometers_per_second": "6.500871042",
                "kilometers_per_hour": "23403.1357511781",
                "miles_per_hour": "14541.7984338362"
            },
            "miss_distance": {
                "astronomical": "0.039132475",
                "lunar": "15.222532775",
                "kilometers": "5854134.90782825",
                "miles": "3637590.75439985"
            },
            "orbiting_body": "Earth"
        }
    ],
    "orbital_data": {
        "orbit_id": "1",
        "orbit_determination_date": "2018-12-12 08:42:08",
        "first_observation_date": "2018-12-10",
        "last_observation_date": "2018-12-12",
        "data_arc_in_days": 2,
        "observations_used": 26,
        "orbit_uncertainty": "8",
        "minimum_orbit_intersection": ".0388265",
        "jupiter_tisserand_invariant": "4.553",
        "epoch_osculation": "2458463.5",
        "eccentricity": ".3117074635773172",
        "semi_major_axis": "1.463040193820831",
        "inclination": "8.504517237907089",
        "ascending_node_longitude": "76.80897797248245",
        "orbital_period": "646.3724139607639",
        "perihelion_distance": "1.006999645893273",
        "perihelion_argument": "333.8331481495615",
        "aphelion_distance": "1.919080741748388",
        "perihelion_time": "2458437.799679535215",
        "mean_anomaly": "14.31390815494212",
        "mean_motion": ".5569544618930051",
        "equinox": "J2000",
        "orbit_class": {
            "orbit_class_type": "APO",
            "orbit_class_description": "Near-Earth asteroid orbits which cross the Earth’s orbit similar to that of 1862 Apollo",
            "orbit_class_range": "a (semi-major axis) > 1.0 AU; q (perihelion) < 1.017 AU"
        }
    },
    "is_sentry_object": false
}